LEMUR-2-ROHOVITHSA      
1 51036U 22002BE  23347.16226619  .00031064  00000+0  90594-3 0  9996
2 51036  97.4196  54.1056 0005190 343.9110  16.1968 15.35289963106098
LEMUR-2-MIRIWARI        
1 51054U 22002BY  23347.13500926  .00037408  00000+0  10266-2 0  9994
2 51054  97.4177  54.3561 0004136 338.4572  21.6498 15.37156572106113
LEMUR-2-DJIRANG         
1 51058U 22002CC  23347.13591585  .00034586  00000+0  95046-3 0  9993
2 51058  97.4150  54.1514 0004312 334.4665  25.6366 15.37130807106110
LEMUR-2-TENNYSONLILY    
1 52732U 22057A   23346.84744217  .00092960  00000+0  14355-2 0  9995
2 52732  97.5663 110.1891 0001846  94.4220 265.7244 15.53795909 86229
LEMUR-2-VANDENDRIES     
1 52733U 22057B   23346.84824928  .00027978  00000+0  74237-3 0  9997
2 52733  97.5433 105.8654 0003515  97.0380 263.1264 15.38265297 86010
LEMUR-2-KAREN B         
1 52736U 22057E   23347.33313445  .00120583  00000+0  14104-2 0  9994
2 52736  97.5512 110.8313 0000960   2.1861 357.9400 15.61170116 86375
LEMUR-2-HANCOM-1        
1 52740U 22057J   23346.86598620  .00036045  00000+0  10086-2 0  9990
2 52740  97.5655 107.4030 0007096  86.9147 273.2909 15.36544258 86020
LEMUR-2-MIMI1307        
1 52769U 22057AP  23346.91263737  .00043083  00000+0  11377-2 0  9999
2 52769  97.5651 107.7088 0006546  59.9635 300.2258 15.38305497 86057
LEMUR-2-PHILARI         
1 55013U 23001E   23347.14132939  .00035963  00000+0  11804-2 0  9992
2 55013  97.4525  46.1995 0007760 100.6817 259.5298 15.31476899 52342
LEMUR-2-DISCLAIMER      
1 55014U 23001F   23347.16069258  .00032217  00000+0  11014-2 0  9990
2 55014  97.4569  46.2130 0008892 108.5510 251.6697 15.30173804 52331
LEMUR-2-STEVEALBERS     
1 55017U 23001J   23347.11709217  .00021914  00000+0  78012-3 0  9998
2 55017  97.4516  45.7063 0008466 105.1308 255.0869 15.28936621 52318
LEMUR-2-EMMACULATE      
1 55037U 23001AE  23347.12208239  .00044016  00000+0  12539-2 0  9998
2 55037  97.4579  47.6970 0011246  92.6140 267.6391 15.35899904 52422
LEMUR-2-MMOLO           
1 55038U 23001AF  23346.69773297  .00008505  00000+0  30819-3 0  9996
2 55038  97.4606  46.9643 0014125  97.2552 263.0294 15.28527753 52334
LEMUR-2-FUENTETAJA-01   
1 55088U 23001CH  23347.15755539  .00035297  00000+0  11624-2 0  9992
2 55088  97.4609  47.0124 0012696  92.2721 267.9974 15.31324722 52379
LEMUR-2-ONREFLECTION    
1 56182U 23054E   23346.67264305  .00019078  00000+0  63948-3 0  9994
2 56182  97.3776 239.5192 0008841 112.0717 248.1463 15.30920101 37408
LEMUR-2-SPACEGUS        
1 56187U 23054K   23347.18240671  .00019734  00000+0  65067-3 0  9999
2 56187  97.3791 240.2305 0009538  95.4749 264.7580 15.31439865 37494
LEMUR-2-ROMEO-N-LEO     
1 56206U 23054AE  23346.67711120  .00047137  00000+0  94713-3 0  9994
2 56206  97.3715 241.7141 0010809  79.8902 280.3566 15.46445164 37556
LEMUR-2-EMBRIONOVIS     
1 56970U 23084AQ  23347.26214363  .00003568  00000+0  18947-3 0  9993
2 56970  97.5343 101.9108 0014088 304.0568  55.9327 15.15889655 27763
LEMUR-2-NAZIYAH         
1 56974U 23084AU  23346.91053591  .00017007  00000+0  78571-3 0  9994
2 56974  97.5227 101.8273 0013055 293.7668  66.2197 15.20185298 27744
LEMUR-2-AADAM-ALIYAH    
1 56977U 23084AX  23346.84335880  .00017046  00000+0  78759-3 0  9994
2 56977  97.5245 101.8116 0013434 295.6625  64.3222 15.20176408 27738
LEMUR-2-MANO            
1 57390U 23100E   23346.44211519  .00005414  00000+0  43010-3 0  9999
2 57390  99.4901 143.4270 0015006 176.0396 184.0943 15.00958187 22088
LEMUR-2-DEVERILL-M-T    
1 57391U 23100F   23346.40588748  .00005258  00000+0  41566-3 0  9997
2 57391  99.4626 143.3814 0012992 177.1678 182.9616 15.01184688 22084
